[
  {
    "OBJECT_NAME": "STARLINK-33934",
    "OBJECT_ID": "25113T",
    "EPOCH": "2025-11-11T06:30:09.440640",
    "MEAN_MOTION": 15.30226721,
    "ECCENTRICITY": 0.0001432,
    "INCLINATION": 53.1587,
    "RA_OF_ASC_NODE": 281.2495,
    "ARG_OF_PERICENTER": 101.484,
    "MEAN_ANOMALY": 258.6322,
    "EPHEMERIS_TYPE": 0,
    "CLASSIFICATION_TYPE": "U",
    "NORAD_CAT_ID": 64187,
    "ELEMENT_SET_NO": 999,
    "REV_AT_EPOCH": 2689,
    "BSTAR": 0.0014075,
    "MEAN_MOTION_DOT": 0.00041595,
    "MEAN_MOTION_DDOT": 0.0,
    "TLE_LINE1": "1 64187U 25113T   25315.27094260  .00041595  00000+0  14075-2 0  9996",
    "TLE_LINE2": "2 64187  53.1587 281.2495 0001432 101.4840 258.6322 15.30226721 26898",
    "COMMENT": "Grouped by shell and plane from TLE"
  },
  {
    "OBJECT_NAME": "STARLINK-33929",
    "OBJECT_ID": "25113U",
    "EPOCH": "2025-11-11T06:27:07.084800",
    "MEAN_MOTION": 15.30215259,
    "ECCENTRICITY": 0.000119,
    "INCLINATION": 53.1579,
    "RA_OF_ASC_NODE": 281.2302,
    "ARG_OF_PERICENTER": 83.2753,
    "MEAN_ANOMALY": 276.8383,
    "EPHEMERIS_TYPE": 0,
    "CLASSIFICATION_TYPE": "U",
    "NORAD_CAT_ID": 64188,
    "ELEMENT_SET_NO": 999,
    "REV_AT_EPOCH": 2693,
    "BSTAR": 0.0010643,
    "MEAN_MOTION_DOT": 0.00031311,
    "MEAN_MOTION_DDOT": 0.0,
    "TLE_LINE1": "1 64188U 25113U   25315.26883200  .00031311  00000+0  10643-2 0  9998",
    "TLE_LINE2": "2 64188  53.1579 281.2302 0001190  83.2753 276.8383 15.30215259 26936",
    "COMMENT": "Grouped by shell and plane from TLE"
  },
  {
    "OBJECT_NAME": "STARLINK-33872",
    "OBJECT_ID": "25113V",
    "EPOCH": "2025-11-11T07:03:25.426656",
    "MEAN_MOTION": 15.30215672,
    "ECCENTRICITY": 0.0001161,
    "INCLINATION": 53.1616,
    "RA_OF_ASC_NODE": 280.6778,
    "ARG_OF_PERICENTER": 102.0927,
    "MEAN_ANOMALY": 258.0204,
    "EPHEMERIS_TYPE": 0,
    "CLASSIFICATION_TYPE": "U",
    "NORAD_CAT_ID": 64189,
    "ELEMENT_SET_NO": 999,
    "REV_AT_EPOCH": 2690,
    "BSTAR": 0.00090766,
    "MEAN_MOTION_DOT": 0.00026632,
    "MEAN_MOTION_DDOT": 0.0,
    "TLE_LINE1": "1 64189U 25113V   25315.29404429  .00026632  00000+0  90766-3 0  9999",
    "TLE_LINE2": "2 64189  53.1616 280.6778 0001161 102.0927 258.0204 15.30215672 26900",
    "COMMENT": "Grouped by shell and plane from TLE"
  },
  {
    "OBJECT_NAME": "STARLINK-34214",
    "OBJECT_ID": "25113W",
    "EPOCH": "2025-11-11T06:45:21.033216",
    "MEAN_MOTION": 15.30224748,
    "ECCENTRICITY": 0.0001034,
    "INCLINATION": 53.1586,
    "RA_OF_ASC_NODE": 281.3125,
    "ARG_OF_PERICENTER": 102.3524,
    "MEAN_ANOMALY": 257.7593,
    "EPHEMERIS_TYPE": 0,
    "CLASSIFICATION_TYPE": "U",
    "NORAD_CAT_ID": 64190,
    "ELEMENT_SET_NO": 999,
    "REV_AT_EPOCH": 2693,
    "BSTAR": 0.0013178999999999999,
    "MEAN_MOTION_DOT": 0.00038908,
    "MEAN_MOTION_DDOT": 0.0,
    "TLE_LINE1": "1 64190U 25113W   25315.28149344  .00038908  00000+0  13179-2 0  9993",
    "TLE_LINE2": "2 64190  53.1586 281.3125 0001034 102.3524 257.7593 15.30224748 26931",
    "COMMENT": "Grouped by shell and plane from TLE"
  },
  {
    "OBJECT_NAME": "STARLINK-34222",
    "OBJECT_ID": "25113X",
    "EPOCH": "2025-11-11T06:52:57.221760",
    "MEAN_MOTION": 15.30203755,
    "ECCENTRICITY": 0.0001616,
    "INCLINATION": 53.1595,
    "RA_OF_ASC_NODE": 281.3431,
    "ARG_OF_PERICENTER": 93.9212,
    "MEAN_ANOMALY": 266.1974,
    "EPHEMERIS_TYPE": 0,
    "CLASSIFICATION_TYPE": "U",
    "NORAD_CAT_ID": 64191,
    "ELEMENT_SET_NO": 999,
    "REV_AT_EPOCH": 2689,
    "BSTAR": 0.0014202000000000002,
    "MEAN_MOTION_DOT": 0.00041947,
    "MEAN_MOTION_DDOT": 0.0,
    "TLE_LINE1": "1 64191U 25113X   25315.28677340  .00041947  00000+0  14202-2 0  9991",
    "TLE_LINE2": "2 64191  53.1595 281.3431 0001616  93.9212 266.1974 15.30203755 26894",
    "COMMENT": "Grouped by shell and plane from TLE"
  },
  {
    "OBJECT_NAME": "STARLINK-34265",
    "OBJECT_ID": "25113Y",
    "EPOCH": "2025-11-11T06:34:42.970944",
    "MEAN_MOTION": 15.30206614,
    "ECCENTRICITY": 0.0001241,
    "INCLINATION": 53.1585,
    "RA_OF_ASC_NODE": 281.2671,
    "ARG_OF_PERICENTER": 99.6787,
    "MEAN_ANOMALY": 260.4354,
    "EPHEMERIS_TYPE": 0,
    "CLASSIFICATION_TYPE": "U",
    "NORAD_CAT_ID": 64192,
    "ELEMENT_SET_NO": 999,
    "REV_AT_EPOCH": 2689,
    "BSTAR": 0.0006914099999999999,
    "MEAN_MOTION_DOT": 0.00020178,
    "MEAN_MOTION_DDOT": 0.0,
    "TLE_LINE1": "1 64192U 25113Y   25315.27410846  .00020178  00000+0  69141-3 0  9993",
    "TLE_LINE2": "2 64192  53.1585 281.2671 0001241  99.6787 260.4354 15.30206614 26899",
    "COMMENT": "Grouped by shell and plane from TLE"
  },
  {
    "OBJECT_NAME": "STARLINK-34245",
    "OBJECT_ID": "25113Z",
    "EPOCH": "2025-11-11T06:57:20.733984",
    "MEAN_MOTION": 15.30214013,
    "ECCENTRICITY": 0.0001466,
    "INCLINATION": 53.1608,
    "RA_OF_ASC_NODE": 280.6556,
    "ARG_OF_PERICENTER": 72.2291,
    "MEAN_ANOMALY": 287.887,
    "EPHEMERIS_TYPE": 0,
    "CLASSIFICATION_TYPE": "U",
    "NORAD_CAT_ID": 64193,
    "ELEMENT_SET_NO": 999,
    "REV_AT_EPOCH": 2690,
    "BSTAR": 0.0006816400000000001,
    "MEAN_MOTION_DOT": 0.00019892,
    "MEAN_MOTION_DDOT": 0.0,
    "TLE_LINE1": "1 64193U 25113Z   25315.28982331  .00019892  00000+0  68164-3 0  9993",
    "TLE_LINE2": "2 64193  53.1608 280.6556 0001466  72.2291 287.8870 15.30214013 26907",
    "COMMENT": "Grouped by shell and plane from TLE"
  },
  {
    "OBJECT_NAME": "STARLINK-34237",
    "OBJECT_ID": "25113AA",
    "EPOCH": "2025-11-11T04:33:18.803808",
    "MEAN_MOTION": 15.30202245,
    "ECCENTRICITY": 0.00011,
    "INCLINATION": 53.1592,
    "RA_OF_ASC_NODE": 281.4467,
    "ARG_OF_PERICENTER": 86.9348,
    "MEAN_ANOMALY": 273.1779,
    "EPHEMERIS_TYPE": 0,
    "CLASSIFICATION_TYPE": "U",
    "NORAD_CAT_ID": 64194,
    "ELEMENT_SET_NO": 999,
    "REV_AT_EPOCH": 2688,
    "BSTAR": 0.0011332,
    "MEAN_MOTION_DOT": 0.00033357,
    "MEAN_MOTION_DDOT": 0.0,
    "TLE_LINE1": "1 64194U 25113AA  25315.18980097  .00033357  00000+0  11332-2 0  9996",
    "TLE_LINE2": "2 64194  53.1592 281.4467 0001100  86.9348 273.1779 15.30202245 26887",
    "COMMENT": "Grouped by shell and plane from TLE"
  },
  {
    "OBJECT_NAME": "STARLINK-33857",
    "OBJECT_ID": "25113AB",
    "EPOCH": "2025-11-11T04:22:38.122752",
    "MEAN_MOTION": 15.30300005,
    "ECCENTRICITY": 0.0001053,
    "INCLINATION": 53.1614,
    "RA_OF_ASC_NODE": 281.4043,
    "ARG_OF_PERICENTER": 121.0073,
    "MEAN_ANOMALY": 239.1031,
    "EPHEMERIS_TYPE": 0,
    "CLASSIFICATION_TYPE": "U",
    "NORAD_CAT_ID": 64195,
    "ELEMENT_SET_NO": 999,
    "REV_AT_EPOCH": 2688,
    "BSTAR": 0.0018383,
    "MEAN_MOTION_DOT": 0.00054657,
    "MEAN_MOTION_DDOT": 0.0,
    "TLE_LINE1": "1 64195U 25113AB  25315.18238568  .00054657  00000+0  18383-2 0  9995",
    "TLE_LINE2": "2 64195  53.1614 281.4043 0001053 121.0073 239.1031 15.30300005 26882",
    "COMMENT": "Grouped by shell and plane from TLE"
  },
  {
    "OBJECT_NAME": "STARLINK-34173",
    "OBJECT_ID": "25113AC",
    "EPOCH": "2025-11-11T04:48:30.373920",
    "MEAN_MOTION": 15.30207161,
    "ECCENTRICITY": 0.0001188,
    "INCLINATION": 53.158,
    "RA_OF_ASC_NODE": 281.5187,
    "ARG_OF_PERICENTER": 94.5894,
    "MEAN_ANOMALY": 265.5243,
    "EPHEMERIS_TYPE": 0,
    "CLASSIFICATION_TYPE": "U",
    "NORAD_CAT_ID": 64196,
    "ELEMENT_SET_NO": 999,
    "REV_AT_EPOCH": 2692,
    "BSTAR": 0.0017212,
    "MEAN_MOTION_DOT": 0.00050979,
    "MEAN_MOTION_DDOT": 0.0,
    "TLE_LINE1": "1 64196U 25113AC  25315.20035155  .00050979  00000+0  17212-2 0  9999",
    "TLE_LINE2": "2 64196  53.1580 281.5187 0001188  94.5894 265.5243 15.30207161 26921",
    "COMMENT": "Grouped by shell and plane from TLE"
  },
  {
    "OBJECT_NAME": "STARLINK-34282",
    "OBJECT_ID": "25130S",
    "EPOCH": "2025-11-11T04:18:08.291232",
    "MEAN_MOTION": 15.30214145,
    "ECCENTRICITY": 0.0001232,
    "INCLINATION": 53.1612,
    "RA_OF_ASC_NODE": 281.4886,
    "ARG_OF_PERICENTER": 90.8463,
    "MEAN_ANOMALY": 269.2679,
    "EPHEMERIS_TYPE": 0,
    "CLASSIFICATION_TYPE": "U",
    "NORAD_CAT_ID": 64454,
    "ELEMENT_SET_NO": 999,
    "REV_AT_EPOCH": 2252,
    "BSTAR": 0.0014112,
    "MEAN_MOTION_DOT": 0.0004169,
    "MEAN_MOTION_DDOT": 0.0,
    "TLE_LINE1": "1 64454U 25130S   25315.17926263  .00041690  00000+0  14112-2 0  9996",
    "TLE_LINE2": "2 64454  53.1612 281.4886 0001232  90.8463 269.2679 15.30214145 22526",
    "COMMENT": "Grouped by shell and plane from TLE"
  },
  {
    "OBJECT_NAME": "STARLINK-34336",
    "OBJECT_ID": "25130AA",
    "EPOCH": "2025-11-11T04:36:22.326912",
    "MEAN_MOTION": 15.3013606,
    "ECCENTRICITY": 0.000157,
    "INCLINATION": 53.1597,
    "RA_OF_ASC_NODE": 281.495,
    "ARG_OF_PERICENTER": 77.6913,
    "MEAN_ANOMALY": 282.4263,
    "EPHEMERIS_TYPE": 0,
    "CLASSIFICATION_TYPE": "U",
    "NORAD_CAT_ID": 64462,
    "ELEMENT_SET_NO": 999,
    "REV_AT_EPOCH": 2252,
    "BSTAR": 0.001711,
    "MEAN_MOTION_DOT": 0.0005056,
    "MEAN_MOTION_DDOT": 0.0,
    "TLE_LINE1": "1 64462U 25130AA  25315.19192508  .00050560  00000+0  17110-2 0  9991",
    "TLE_LINE2": "2 64462  53.1597 281.4950 0001570  77.6913 282.4263 15.30136060 22522",
    "COMMENT": "Grouped by shell and plane from TLE"
  },
  {
    "OBJECT_NAME": "STARLINK-34400",
    "OBJECT_ID": "25130AB",
    "EPOCH": "2025-11-11T04:27:14.881824",
    "MEAN_MOTION": 15.30198111,
    "ECCENTRICITY": 0.0001161,
    "INCLINATION": 53.1594,
    "RA_OF_ASC_NODE": 281.5238,
    "ARG_OF_PERICENTER": 75.9428,
    "MEAN_ANOMALY": 284.1702,
    "EPHEMERIS_TYPE": 0,
    "CLASSIFICATION_TYPE": "U",
    "NORAD_CAT_ID": 64463,
    "ELEMENT_SET_NO": 999,
    "REV_AT_EPOCH": 2252,
    "BSTAR": 0.0013067,
    "MEAN_MOTION_DOT": 0.00038541,
    "MEAN_MOTION_DDOT": 0.0,
    "TLE_LINE1": "1 64463U 25130AB  25315.18558891  .00038541  00000+0  13067-2 0  9994",
    "TLE_LINE2": "2 64463  53.1594 281.5238 0001161  75.9428 284.1702 15.30198111 22520",
    "COMMENT": "Grouped by shell and plane from TLE"
  }
]